{"fetched_at":"2026-07-07T18:29:14.088Z","source":"https://celestrak.org/NORAD/elements/gp.php?GROUP=stations&FORMAT=JSON","constellation":"tiangong","records":[{"OBJECT_NAME":"CSS (TIANHE)","OBJECT_ID":"2021-035A","EPOCH":"2026-07-07T11:00:45.764928","CLASSIFICATION_TYPE":"U","MEAN_MOTION":15.58027856,"ECCENTRICITY":0.0002931,"INCLINATION":41.4676,"RA_OF_ASC_NODE":198.7215,"ARG_OF_PERICENTER":276.4067,"MEAN_ANOMALY":83.6437,"EPHEMERIS_TYPE":0,"NORAD_CAT_ID":48274,"ELEMENT_SET_NO":999,"REV_AT_EPOCH":29633,"BSTAR":0.00011943,"MEAN_MOTION_DOT":0.00008899,"MEAN_MOTION_DDOT":0}]}
